{"type":"FeatureCollection","features":[{"type":"Feature","properties":{"tenTinh":"Th\u00e0nh ph\u1ed1 H\u00e0 N\u1ed9i","maTinh":"101","tenXa":"Ph\u01b0\u1eddng \u00d4 Ch\u1ee3 D\u1eeba","maXa":"10109013","danSo":"71293","dienTich":"1.83","ghiChu":"Ph\u01b0\u1eddng C\u00e1t Linh (ph\u1ea7n c\u00f2n l\u1ea1i sau khi s\u00e1p nh\u1eadp v\u00e0o ph\u01b0\u1eddng Gi\u1ea3ng V\u00f5), Ph\u01b0\u1eddng \u0110i\u1ec7n Bi\u00ean (ph\u1ea7n c\u00f2n l\u1ea1i sau khi s\u00e1p nh\u1eadp v\u00e0o ph\u01b0\u1eddng Ho\u00e0n Ki\u1ebfm, ph\u01b0\u1eddng Ba \u0110\u00ecnh, ph\u01b0\u1eddng V\u0103n Mi\u1ebfu Qu\u1ed1c T\u1eed Gi\u00e1m), Ph\u01b0\u1eddng T"},"geometry":{"type":"MultiPolygon","coordinates":[[[[105.83420471700003,21.02774422300007],[105.83569267000007,21.027180194000039],[105.83550167400006,21.026891200000023],[105.83557568400005,21.026810225000077],[105.83562567500007,21.026715225000032],[105.83562567800004,21.026645203000044],[105.83560267900003,21.026580221000074],[105.83556768900007,21.026515221000068],[105.83552968600009,21.026362221000056],[105.83554866200006,21.02627822200003],[105.83572766700007,21.026051210000048],[105.83585169200006,21.025908189000063],[105.83594567900008,21.025739209000051],[105.83595467900005,21.025571205000062],[105.83597268600005,21.025462215000061],[105.83598167000008,21.025319205000073],[105.83595166200007,21.025143208000031],[105.83590565900005,21.024963179000054],[105.83565866400005,21.024518199000056],[105.83562565700004,21.024377209000022],[105.83559665400008,21.024268192000022],[105.83559564900008,21.024201214000072],[105.83565264800006,21.024033194000026],[105.83571865700009,21.023890198000061],[105.83576564200007,21.023772180000037],[105.83577365900004,21.023654205000071],[105.83576464900005,21.023587190000057],[105.83574463100007,21.02351219600007],[105.83571563100008,21.023453203000031],[105.83566763000005,21.023353202000067],[105.83562865700009,21.023302185000034],[105.83533264300007,21.023069211000063],[105.83517963700007,21.022986205000052],[105.83508362700007,21.022961200000054],[105.83499762400004,21.022970214000054],[105.83493165700008,21.023029189000056],[105.83478962400005,21.023231211000052],[105.83472364200009,21.023273191000044],[105.83465664400006,21.023274187000027],[105.83458064200005,21.023266191000062],[105.83452263300006,21.023224190000064],[105.83445566100005,21.023166199000059],[105.83432265800008,21.023141190000047],[105.83422664300008,21.023158213000045],[105.83408462800008,21.023243223000065],[105.83397062700004,21.023302214000068],[105.83380864400004,21.023328225000057],[105.83367465000003,21.023295222000058],[105.83354065000009,21.023254222000048],[105.83340763200005,21.023255206000044],[105.83328363900006,21.023297212000045],[105.83316063000007,21.02338220300004],[105.83304666500004,21.02348321900007],[105.83292365900007,21.023568210000064],[105.83279964300004,21.023585220000029],[105.83273266900005,21.023569219000024],[105.83258864500004,21.023477241000023],[105.83249266500007,21.023351221000041],[105.83241664900004,21.02323421400007],[105.83237764300009,21.023134243000072],[105.83233864200008,21.023042233000069],[105.83230962800008,21.022966243000042],[105.83224262900006,21.022882221000032],[105.83212763800009,21.022791212000072],[105.83204164800009,21.022724241000049],[105.83197462200008,21.022649216000048],[105.83195465500006,21.022590216000026],[105.83198364300006,21.02249824300003],[105.83202064700004,21.022422228000039],[105.83206863500004,21.022371228000054],[105.83218161900004,21.022228226000038],[105.83219064700006,21.022178230000065],[105.83220963500008,21.022110227000042],[105.83223763300003,21.022060212000042],[105.83236162600008,21.021975217000033],[105.83255163800004,21.021933223000076],[105.83276162100009,21.021873209000034],[105.83298961900005,21.021804219000046],[105.83316062500006,21.021720216000062],[105.83333162000008,21.021627213000045],[105.83340961000005,21.021546220000062],[105.83343261400006,21.021449204000078],[105.83344162800006,21.021311193000031],[105.83291661900006,21.020838208000043],[105.83265360600006,21.020673199000043],[105.83254161000008,21.020674230000054],[105.83238063300007,21.020703233000063],[105.83190660900004,21.021003224000026],[105.83184260800004,21.021025236000071],[105.83181863000004,21.021025243000054],[105.83176961000004,21.021004228000038],[105.83171360900008,21.020961215000057],[105.83164862300004,21.020905212000059],[105.83162460800008,21.020870227000046],[105.83156762200008,21.020806224000069],[105.83148662600007,21.020665246000078],[105.83146962800004,21.020594233000054],[105.83148560200004,21.020530244000042],[105.83153359500005,21.020466209000062],[105.83157362200006,21.020416210000064],[105.83163762500004,21.020387237000023],[105.83175861400008,21.020358207000072],[105.83179860300004,21.020351236000067],[105.83182262100007,21.02034423200007],[105.83184660000006,21.020323230000031],[105.83186260800005,21.020294233000072],[105.83187862000005,21.020230206000065],[105.83187759900005,21.020124235000026],[105.83186162400006,21.020081211000047],[105.83183662600004,21.020025236000038],[105.83180460600005,21.019997214000057],[105.83176461900007,21.019976229000065],[105.83169162300004,21.019976216000032],[105.83161160500003,21.019983235000041],[105.83141060100007,21.020055238000054],[105.83134659800004,21.020077214000025],[105.83128961300008,21.020070234000059],[105.83127360500004,21.02004224500007],[105.83115159300007,21.019865215000038],[105.83109461300006,21.019795214000055],[105.83090059400007,21.019647232000068],[105.83033561100007,21.01927422600005],[105.83023659100007,21.019175250000046],[105.83015158700005,21.019058248000078],[105.83004261300005,21.018835238000065],[105.82988960900008,21.018466219000061],[105.82930960000004,21.017471239000031],[105.82895756700009,21.017666244000054],[105.82837157800009,21.018064267000057],[105.82822759300007,21.018192273000068],[105.82795259500006,21.017976254000075],[105.82788657600008,21.017911256000048],[105.82783458200004,21.017858261000072],[105.82781260000007,21.017805270000053],[105.82782558800005,21.017736260000049],[105.82790760100005,21.017648251000026],[105.82835156900006,21.01727624800003],[105.82839457700004,21.017230234000067],[105.82841557300009,21.017176256000027],[105.82842858600009,21.017126241000028],[105.82842858700008,21.017069254000035],[105.82841056600006,21.016962256000056],[105.82820658900005,21.016545233000045],[105.82802358600009,21.016634252000074],[105.82737158300006,21.016918249000071],[105.82702257500006,21.017061246000026],[105.82596955700006,21.015206270000078],[105.82573554300006,21.014883258000054],[105.82565753900008,21.014933254000027],[105.82518056800006,21.01519128800004],[105.82468953700004,21.014513269000076],[105.82436654400004,21.014115295000067],[105.82391455400005,21.014376277000054],[105.82379355400008,21.014259297000024],[105.82358854200004,21.014448284000025],[105.82304956400009,21.015027278000048],[105.82286655900003,21.015123292000055],[105.82284357700007,21.015477285000031],[105.82242859300004,21.015879311000049],[105.82220657500005,21.016110295000033],[105.82199457800004,21.01633530600003],[105.82157457500006,21.016347331000077],[105.82143760500009,21.016338328000074],[105.82132357700004,21.01631333000006],[105.82123259200006,21.016283332000057],[105.82111260400006,21.016199336000057],[105.82049956800006,21.015556330000038],[105.82038757500004,21.015665328000068],[105.82013259600006,21.015898320000076],[105.82008358200005,21.015884336000056],[105.81997360500009,21.015929337000046],[105.81982458600004,21.01597434200005],[105.81976460600004,21.015974335000067],[105.81964458200008,21.015992354000048],[105.81958460300007,21.01603633600007],[105.81950558900007,21.016125327000054],[105.81888058800007,21.016937338000048],[105.81881158200008,21.017025353000065],[105.81877158300006,21.017052355000033],[105.81874159400007,21.017070347000072],[105.81866161800008,21.017070362000027],[105.81849159600006,21.016974350000055],[105.81836059600005,21.016816349000067],[105.81826058500008,21.016729368000028],[105.81821958700004,21.016703350000057],[105.81814960900005,21.016685357000028],[105.81808060600008,21.016694354000037],[105.81797060900004,21.016721358000041],[105.81788059800004,21.016739379000057],[105.81782058500005,21.016784361000077],[105.81764160400007,21.016925375000028],[105.81742261300008,21.01712038200003],[105.81723960800008,21.017282374000047],[105.81790463400006,21.017900371000053],[105.81877164000008,21.018478362000053],[105.81970062000005,21.019773371000042],[105.81995863400005,21.021356359000038],[105.82076868900003,21.022829373000036],[105.82082066600009,21.022915362000049],[105.82093968500004,21.023109373000068],[105.82105966700004,21.023306341000023],[105.82024066800005,21.023443373000077],[105.81992866200005,21.023469354000042],[105.81979369400005,21.023481372000049],[105.82241872100008,21.025620355000058],[105.82487771600006,21.027624315000025],[105.82610674400007,21.028626339000027],[105.82975076700006,21.031309306000026],[105.82976925100007,21.031331786000067],[105.82998675200008,21.031483301000037],[105.82980876000005,21.030678281000064],[105.82976476500005,21.030475282000054],[105.82975575900008,21.030437299000027],[105.83010073100007,21.030016268000054],[105.83035472900008,21.030046280000022],[105.83180373600004,21.030218266000077],[105.83251573900009,21.030659271000047],[105.83273275500005,21.031486277000056],[105.83278075400005,21.031472267000026],[105.83609773700005,21.030509209000058],[105.83604674000009,21.03043821600005],[105.83588274600004,21.030211223000038],[105.83516273300006,21.029197219000025],[105.83420471700003,21.02774422300007]]]]}}]}