{"type":"FeatureCollection","features":[{"type":"Feature","properties":{"code":"CX","name":"","osm_id":28366988},"geometry":{"type":"Polygon","coordinates":[[[105.8324664,21.0294886],[105.8328029,21.030414],[105.8334312,21.0302225],[105.8331025,21.0292985],[105.8324664,21.0294886]]]}},{"type":"Feature","properties":{"code":"CX","name":"Hồ Văn","osm_id":178995315},"geometry":{"type":"Polygon","coordinates":[[[105.8352332,21.0273056],[105.8357261,21.0271133],[105.8356622,21.0269685],[105.835777,21.0268686],[105.8358709,21.0267396],[105.8357692,21.026613],[105.8357992,21.0265643],[105.8357627,21.0265059],[105.8357314,21.0264122],[105.8356479,21.0263282],[105.8355514,21.0262479],[105.8354145,21.0261931],[105.8352984,21.0261407],[105.8351458,21.0261736],[105.8348915,21.0262357],[105.8347285,21.0262929],[105.8346477,21.0263854],[105.8345786,21.0265777],[105.834572,21.0266873],[105.8346073,21.0268139],[105.8346764,21.0269149],[105.8347976,21.026994],[105.834932,21.0270902],[105.8350272,21.0271425],[105.8351537,21.0271705],[105.8352332,21.0273056]]]}},{"type":"Feature","properties":{"code":"GD","name":"Trường Trung học cơ sở Nguyễn Trường Tộ","osm_id":194852647},"geometry":{"type":"Polygon","coordinates":[[[105.8210851,21.0214163],[105.8210858,21.021158],[105.8210929,21.0207918],[105.8204188,21.0207893],[105.8204166,21.0204409],[105.81977,21.0207213],[105.8201138,21.0214205],[105.8202547,21.0214192],[105.8210851,21.0214163]]]}},{"type":"Feature","properties":{"code":"TON","name":"Đình Hoàng Cầu","osm_id":194852648},"geometry":{"type":"Polygon","coordinates":[[[105.8219999,21.0216138],[105.8221768,21.0214963],[105.8218926,21.0210671],[105.8217268,21.021161],[105.821753,21.0212469],[105.8218336,21.0214267],[105.8218645,21.0214182],[105.8219019,21.021506],[105.8219999,21.0216138]]]}},{"type":"Feature","properties":{"code":"MN","name":"Hồ Hào Nam","osm_id":196063551},"geometry":{"type":"Polygon","coordinates":[[[105.8268551,21.0267352],[105.8269917,21.0269986],[105.8270109,21.0270355],[105.8270121,21.0270694],[105.826975,21.0271799],[105.8269688,21.027218],[105.8269771,21.0272605],[105.827064,21.0274463],[105.8270961,21.0275244],[105.8270916,21.0275901],[105.827065,21.0276443],[105.8270538,21.0276916],[105.8270584,21.0277323],[105.8270878,21.0277657],[105.8271696,21.0278596],[105.8274552,21.0278746],[105.8274666,21.0274331],[105.8274791,21.0273227],[105.8275062,21.0269034],[105.8274504,21.0265047],[105.8268614,21.0266952],[105.8268521,21.0267122],[105.8268551,21.0267352]]]}},{"type":"Feature","properties":{"code":"CX","name":"","osm_id":196903986},"geometry":{"type":"Polygon","coordinates":[[[105.8339841,21.0253189],[105.8340478,21.0254782],[105.8343701,21.0253627],[105.8343149,21.0252096],[105.8341599,21.02526],[105.8339841,21.0253189]]]}},{"type":"Feature","properties":{"code":"CX","name":"","osm_id":196903989},"geometry":{"type":"Polygon","coordinates":[[[105.8340457,21.0249537],[105.8338627,21.0250119],[105.8339841,21.0253189],[105.8341599,21.02526],[105.8340457,21.0249537]]]}},{"type":"Feature","properties":{"code":"CX","name":"","osm_id":196903992},"geometry":{"type":"Polygon","coordinates":[[[105.8342007,21.0249034],[105.8340457,21.0249537],[105.8341599,21.02526],[105.8343149,21.0252096],[105.8342007,21.0249034]]]}},{"type":"Feature","properties":{"code":"CX","name":"","osm_id":560585017},"geometry":{"type":"Polygon","coordinates":[[[105.8308616,21.0248435],[105.8307792,21.0246369],[105.8310554,21.024541],[105.8311377,21.0247476],[105.8308616,21.0248435]]]}},{"type":"Feature","properties":{"code":"TON","name":"Chùa Cát Linh","osm_id":729254692},"geometry":{"type":"Polygon","coordinates":[[[105.8295032,21.0287238],[105.8295871,21.028705],[105.8297464,21.0286739],[105.8297591,21.0285862],[105.82981,21.0285933],[105.8298168,21.0285718],[105.8298447,21.028573],[105.8298633,21.0285524],[105.8298523,21.0284979],[105.8297628,21.0285153],[105.8297047,21.0285265],[105.8294753,21.0285729],[105.8294666,21.0285747],[105.8294937,21.0286868],[105.8295032,21.0287238]]]}},{"type":"Feature","properties":{"code":"CX","name":"Khu vui chơi giải trí Quận Đống Đa","osm_id":826029898},"geometry":{"type":"Polygon","coordinates":[[[105.8211869,21.016541],[105.8211022,21.0164985],[105.8209734,21.0165433],[105.8209036,21.0166766],[105.8208902,21.0167136],[105.820911,21.0167474],[105.8209519,21.0167611],[105.8210109,21.0167568],[105.8210331,21.0167543],[105.8211869,21.016541]]]}},{"type":"Feature","properties":{"code":"CX","name":"","osm_id":839881659},"geometry":{"type":"Polygon","coordinates":[[[105.8233715,21.0191966],[105.8231874,21.0188026],[105.8236412,21.0186179],[105.8238253,21.0190118],[105.8233715,21.0191966]]]}},{"type":"Feature","properties":{"code":"GD","name":"Trường Tiểu học Đống Đa","osm_id":840439575},"geometry":{"type":"Polygon","coordinates":[[[105.8285666,21.0189769],[105.8283811,21.0187424],[105.8284354,21.018582],[105.828797,21.0183346],[105.8290285,21.0186368],[105.8285666,21.0189769]]]}},{"type":"Feature","properties":{"code":"CX","name":"","osm_id":840439580},"geometry":{"type":"Polygon","coordinates":[[[105.8244265,21.0180628],[105.824488,21.0180335],[105.824032,21.0171973],[105.8239702,21.0172267],[105.8244265,21.0180628]]]}},{"type":"Feature","properties":{"code":"TMDV","name":"Công ty Cổ phần Dược phẩm Trung ương 1","osm_id":860294712},"geometry":{"type":"Polygon","coordinates":[[[105.8314172,21.0258056],[105.8315721,21.0257494],[105.8315883,21.0257886],[105.8327801,21.0253567],[105.8326102,21.0249482],[105.8326958,21.0249172],[105.8325773,21.0246321],[105.8318777,21.0248855],[105.8318037,21.0247074],[105.8313528,21.0248707],[105.8313308,21.0248178],[105.8309046,21.0249723],[105.8310917,21.025422],[105.8312359,21.0253698],[105.8314172,21.0258056]]]}},{"type":"Feature","properties":{"code":"TON","name":"","osm_id":860294714},"geometry":{"type":"Polygon","coordinates":[[[105.8320734,21.0247908],[105.8325329,21.0246255],[105.8325744,21.02471],[105.8326841,21.024663],[105.8326151,21.0245226],[105.8325879,21.0245342],[105.832552,21.0244539],[105.8324669,21.024482],[105.8324458,21.0244264],[105.8323617,21.0244578],[105.8323315,21.0243845],[105.8319614,21.0245144],[105.8319185,21.0244011],[105.8317725,21.0244494],[105.8318444,21.024639],[105.8320055,21.0245858],[105.8320734,21.0247908]]]}},{"type":"Feature","properties":{"code":"GD","name":"Trường Cao đẳng Y tế Hà Nội","osm_id":860294715},"geometry":{"type":"Polygon","coordinates":[[[105.8314718,21.0260257],[105.8316097,21.0263373],[105.831686,21.0265127],[105.8316958,21.0265334],[105.8321881,21.0263361],[105.8321711,21.0262979],[105.8320091,21.0259387],[105.8319619,21.0258349],[105.8314718,21.0260257]]]}},{"type":"Feature","properties":{"code":"GD","name":"Trường Trung học phổ thông Đống Đa","osm_id":860294716},"geometry":{"type":"Polygon","coordinates":[[[105.8292484,21.0225458],[105.8296433,21.0223758],[105.8298797,21.0222343],[105.8298173,21.0221119],[105.8298382,21.022073],[105.8298027,21.0220281],[105.8300681,21.0218635],[105.830137,21.0217947],[105.8299648,21.0214748],[105.8295129,21.0216945],[105.8292927,21.0218133],[105.8289614,21.0219465],[105.829209,21.0223903],[105.8291717,21.0224131],[105.8292484,21.0225458]]]}},{"type":"Feature","properties":{"code":"GD","name":"Trường Tiểu học Cát Linh - Phân hiệu Tô Vĩnh Diện","osm_id":860294717},"geometry":{"type":"Polygon","coordinates":[[[105.830137,21.0217947],[105.8306457,21.0215267],[105.8304693,21.0212077],[105.8300943,21.0214024],[105.8299648,21.0214748],[105.830137,21.0217947]]]}},{"type":"Feature","properties":{"code":"GD","name":"Trường Đại học Mỹ thuật Công nghiệp","osm_id":862095210},"geometry":{"type":"Polygon","coordinates":[[[105.8235178,21.0227414],[105.8235961,21.0227156],[105.823601,21.0227283],[105.8236227,21.0227218],[105.8236426,21.0227726],[105.823729,21.0228329],[105.8242139,21.0226673],[105.8244174,21.0232614],[105.8244853,21.0233325],[105.8245313,21.0233186],[105.8246028,21.0235172],[105.8245824,21.023527],[105.8246534,21.0237268],[105.8239939,21.0239197],[105.8240295,21.0240118],[105.823487,21.0241882],[105.8233781,21.0241957],[105.8230016,21.0231545],[105.8234895,21.0229658],[105.8235467,21.0228075],[105.8235178,21.0227414]]]}},{"type":"Feature","properties":{"code":"TON","name":"Chùa Thanh Nhàn","osm_id":862095211},"geometry":{"type":"Polygon","coordinates":[[[105.8245296,21.0227088],[105.8246342,21.0232386],[105.8246384,21.0232618],[105.8253948,21.0230731],[105.8252446,21.0225712],[105.8251987,21.0224754],[105.8245296,21.0227088]]]}},{"type":"Feature","properties":{"code":"GD","name":"Học viện Âm nhạc Quốc gia Việt Nam","osm_id":862095212},"geometry":{"type":"Polygon","coordinates":[[[105.8252203,21.023377],[105.8253387,21.023775],[105.8265906,21.0234777],[105.8266421,21.023468],[105.8264978,21.022967],[105.8264019,21.0226576],[105.8263898,21.0226168],[105.8262013,21.0221406],[105.8255342,21.022329],[105.8257386,21.0229996],[105.8257287,21.0232546],[105.8255373,21.0233081],[105.8252203,21.023377]]]}},{"type":"Feature","properties":{"code":"QP","name":"Ban Chỉ huy Quân sự quận Đống Đa","osm_id":884063644},"geometry":{"type":"Polygon","coordinates":[[[105.8277331,21.018319],[105.8278368,21.0183417],[105.8281073,21.0181946],[105.828067,21.01813],[105.8278636,21.0178041],[105.8277985,21.0178395],[105.8277463,21.0177558],[105.8276806,21.0176504],[105.8274082,21.0177985],[105.827439,21.0178478],[105.8277172,21.0182936],[105.8277331,21.018319]]]}},{"type":"Feature","properties":{"code":"GD","name":"Trường Tiểu học Cát Linh","osm_id":909125235},"geometry":{"type":"Polygon","coordinates":[[[105.8289597,21.0285494],[105.8288594,21.0281157],[105.8289003,21.0281031],[105.8290967,21.0280647],[105.8295571,21.027973],[105.8296027,21.0279639],[105.8296577,21.0282069],[105.8297601,21.0281869],[105.8298049,21.02838],[105.829735,21.0283936],[105.8289597,21.0285494]]]}},{"type":"Feature","properties":{"code":"GD","name":"Trường Trung học cơ sở Cát Linh","osm_id":909125236},"geometry":{"type":"Polygon","coordinates":[[[105.8289597,21.0285494],[105.829735,21.0283936],[105.8297361,21.0283982],[105.8297384,21.0284084],[105.8297476,21.0284473],[105.8297628,21.0285153],[105.8297047,21.0285265],[105.8294666,21.0285747],[105.8294937,21.0286868],[105.8295032,21.0287238],[105.8295871,21.028705],[105.8296192,21.0288491],[105.8293229,21.0289048],[105.829345,21.0290142],[105.8290763,21.0290632],[105.8289597,21.0285494]]]}},{"type":"Feature","properties":{"code":"HH","name":"Trường Trung học phổ thông Hoàng Cầu","osm_id":939606842},"geometry":{"type":"Polygon","coordinates":[[[105.8210929,21.0207918],[105.8210951,21.0205014],[105.8208127,21.0205066],[105.8208073,21.0203439],[105.8207079,21.0203686],[105.8204166,21.0204409],[105.8204188,21.0207893],[105.8210929,21.0207918]]]}},{"type":"Feature","properties":{"code":"GD","name":"Trường Mầm non Cát Linh","osm_id":939977307},"geometry":{"type":"Polygon","coordinates":[[[105.8290967,21.0280647],[105.8295571,21.027973],[105.8296027,21.0279639],[105.8295632,21.0277664],[105.8294146,21.0277376],[105.8289997,21.0275395],[105.8290967,21.0280647]]]}},{"type":"Feature","properties":{"code":"GD","name":"Trường Mầm non Ô Chợ Dừa (phân hiệu 2)","osm_id":939977308},"geometry":{"type":"Polygon","coordinates":[[[105.8288904,21.0211931],[105.8289179,21.0212601],[105.8290004,21.0214438],[105.829086,21.0214134],[105.8291796,21.0216265],[105.829145,21.021639],[105.8290024,21.0216899],[105.8289686,21.0216238],[105.8289457,21.021632],[105.8288787,21.0216558],[105.8287261,21.021277],[105.8287216,21.0212363],[105.8288853,21.0211758],[105.8288904,21.0211931]]]}},{"type":"Feature","properties":{"code":"TMDV","name":"Viện Khoa học và Công nghệ Mỏ - Luyện kim","osm_id":1016775836},"geometry":{"type":"Polygon","coordinates":[[[105.8299939,21.0276519],[105.8301926,21.0276066],[105.8301839,21.0275032],[105.8302701,21.0272565],[105.8304548,21.0272628],[105.8304493,21.0269796],[105.8303259,21.0268791],[105.830213,21.026866],[105.8301236,21.0268691],[105.8297649,21.0269548],[105.8297697,21.0269799],[105.8298147,21.0271207],[105.8298499,21.027227],[105.8298513,21.0272383],[105.8299635,21.0275636],[105.8299939,21.0276519]]]}},{"type":"Feature","properties":{"code":"TMDV","name":"","osm_id":1023619592},"geometry":{"type":"Polygon","coordinates":[[[105.8247431,21.0184327],[105.825411,21.0180822],[105.8257409,21.0186129],[105.825591,21.0186866],[105.8250516,21.0190261],[105.8247431,21.0184327]]]}},{"type":"Feature","properties":{"code":"CX","name":"","osm_id":1083931492},"geometry":{"type":"Polygon","coordinates":[[[105.8325137,21.0294161],[105.8326517,21.0292485],[105.8326833,21.0292738],[105.8327086,21.0293057],[105.8327239,21.029331],[105.8327347,21.0293571],[105.8325137,21.0294161]]]}},{"type":"Feature","properties":{"code":"MN","name":"Hố Đống Đa","osm_id":1112643377},"geometry":{"type":"Polygon","coordinates":[[[105.8191319,21.0168831],[105.8196596,21.0162171],[105.8196966,21.0161742],[105.8197412,21.016148],[105.8197897,21.0161432],[105.8199824,21.0161742],[105.8200487,21.0161849],[105.8200934,21.0161659],[105.8201317,21.0161313],[105.8202414,21.0160039],[105.8202758,21.0159717],[105.8203154,21.0159491],[105.8203409,21.0159443],[105.820383,21.015961],[105.8204481,21.0160194],[105.820908,21.0164361],[105.8208302,21.0164695],[105.8207013,21.0165516],[105.8206235,21.0166279],[105.8205998,21.0166645],[105.8205852,21.0167088],[105.820563,21.0167733],[105.820556,21.016827],[105.8205576,21.0168762],[105.8205645,21.016933],[105.8205787,21.0169905],[105.8206005,21.0170512],[105.8206403,21.0171086],[105.8206848,21.017167],[105.8207386,21.0172061],[105.8208018,21.0172384],[105.8208658,21.0172616],[105.8209421,21.0172813],[105.8210011,21.0172855],[105.8210856,21.0172738],[105.8211745,21.0172468],[105.8212528,21.0172071],[105.8213349,21.0171429],[105.8213791,21.0170878],[105.8214304,21.0170017],[105.8214554,21.0169208],[105.8214554,21.0168215],[105.8214608,21.0168012],[105.8214621,21.016778],[105.8214739,21.0167548],[105.8216835,21.0166743],[105.8217924,21.0166457],[105.8219839,21.0166157],[105.8221102,21.0166157],[105.8225865,21.0166195],[105.8227971,21.016624],[105.8229245,21.0166328],[105.8229864,21.016636],[105.8230572,21.0166506],[105.8231023,21.0166623],[105.8231788,21.0166999],[105.8232218,21.0167288],[105.8232661,21.0167662],[105.8233075,21.016807],[105.8233515,21.0168647],[105.8234041,21.0169516],[105.8234527,21.0170619],[105.8234696,21.0170916],[105.8234825,21.017121],[105.8234885,21.0171584],[105.8234965,21.0171989],[105.8235047,21.0172331],[105.8235174,21.0172573],[105.8235326,21.0172882],[105.8235545,21.0173255],[105.8235825,21.0173571],[105.8236254,21.0173991],[105.8236603,21.0174322],[105.8236988,21.0174865],[105.823713,21.017509],[105.8237684,21.0176155],[105.8238632,21.0177778],[105.8238703,21.017804],[105.8238954,21.0178819],[105.823893,21.0179265],[105.823889,21.0179581],[105.8238706,21.0179885],[105.8238359,21.0180246],[105.8234927,21.0181508],[105.8233136,21.0182298],[105.8229213,21.0183665],[105.822686,21.0184611],[105.8224072,21.0185573],[105.8222178,21.0186072],[105.8220116,21.0186627],[105.8218324,21.0187072],[105.8216676,21.0187415],[105.8214295,21.018813],[105.8213233,21.0188507],[105.8212821,21.0188615],[105.8212301,21.0188726],[105.8211635,21.0188723],[105.8210685,21.018855],[105.8210059,21.0188607],[105.8209599,21.0188762],[105.8209175,21.0188874],[105.8208769,21.01891],[105.8208492,21.0189358],[105.82082,21.0189792],[105.8207616,21.0190169],[105.8207104,21.0190364],[105.8206523,21.0190413],[105.8205384,21.0190431],[105.8201969,21.0190582],[105.8200234,21.0190606],[105.8198582,21.0190386],[105.8197315,21.0190226],[105.8196094,21.018993],[105.8194742,21.018954],[105.8193195,21.0188976],[105.8191712,21.0188357],[105.8189909,21.0187525],[105.8188964,21.0186989],[105.818803,21.018632],[105.8186382,21.0185132],[105.8185343,21.018429],[105.8183799,21.0182886],[105.8182186,21.0181449],[105.8180095,21.0179358],[105.8177227,21.0176273],[105.817512,21.0173785],[105.8174557,21.0173172],[105.8174371,21.0172682],[105.8174307,21.0172291],[105.8174376,21.0171917],[105.8174653,21.017131],[105.817647,21.0168103],[105.8176694,21.0167786],[105.8177059,21.0167518],[105.8177381,21.0167419],[105.8177844,21.0167323],[105.8178336,21.0167325],[105.8178852,21.0167456],[105.8179737,21.0167945],[105.8182014,21.0169094],[105.8183585,21.0169967],[105.8184478,21.0170891],[105.8185081,21.0171381],[105.8186006,21.0171757],[105.8186673,21.0171897],[105.8187487,21.0171949],[105.8188121,21.0171873],[105.8188675,21.0171697],[105.8189182,21.0171417],[105.8189874,21.0170739],[105.8191319,21.0168831]]]}},{"type":"Feature","properties":{"code":"CX","name":"Vườn hoa Hoàng Cầu","osm_id":1112643378},"geometry":{"type":"Polygon","coordinates":[[[105.820908,21.0164361],[105.8208302,21.0164695],[105.8207013,21.0165516],[105.8206235,21.0166279],[105.8205998,21.0166645],[105.8205852,21.0167088],[105.820563,21.0167733],[105.820556,21.016827],[105.8205576,21.0168762],[105.8205645,21.016933],[105.8205787,21.0169905],[105.8206005,21.0170512],[105.8206403,21.0171086],[105.8206848,21.017167],[105.8207386,21.0172061],[105.8208018,21.0172384],[105.8208658,21.0172616],[105.8209421,21.0172813],[105.8210011,21.0172855],[105.8210856,21.0172738],[105.8211745,21.0172468],[105.8212528,21.0172071],[105.8213349,21.0171429],[105.8213791,21.0170878],[105.8214304,21.0170017],[105.8214554,21.0169208],[105.8214554,21.0168215],[105.8214608,21.0168012],[105.8214621,21.016778],[105.8214739,21.0167548],[105.8216835,21.0166743],[105.8217924,21.0166457],[105.8216978,21.0166208],[105.8216038,21.0165868],[105.8215613,21.0165755],[105.8214581,21.016574],[105.8213458,21.0165655],[105.8212502,21.0165542],[105.8211869,21.016541],[105.8211022,21.0164985],[105.8210199,21.0164619],[105.8209513,21.0164225],[105.820908,21.0164361]]]}},{"type":"Feature","properties":{"code":"HH","name":"Ga Cát Linh","osm_id":1197647739},"geometry":{"type":"Polygon","coordinates":[[[105.8277199,21.029494],[105.8276947,21.0293533],[105.8294612,21.0290451],[105.8298058,21.0290014],[105.8298266,21.02911],[105.8295798,21.0291568],[105.8295939,21.0292274],[105.829482,21.0292486],[105.8294655,21.0291794],[105.8277199,21.029494]]]}},{"type":"Feature","properties":{"code":"CX","name":"","osm_id":1206386956},"geometry":{"type":"Polygon","coordinates":[[[105.8272208,21.0291934],[105.8271701,21.0291872],[105.8271243,21.0292447],[105.8271503,21.0292644],[105.8271773,21.0292811],[105.827205,21.0292916],[105.8272384,21.0292962],[105.827269,21.0292896],[105.8272909,21.0292799],[105.8273074,21.0292678],[105.8273226,21.0292523],[105.8273353,21.0292349],[105.8273425,21.029215],[105.8273462,21.0291943],[105.8272825,21.0291955],[105.8272897,21.0292065],[105.8272925,21.0292192],[105.8272909,21.029232],[105.8272848,21.0292436],[105.8272751,21.0292527],[105.8272627,21.0292584],[105.827249,21.02926],[105.8272356,21.0292574],[105.8272237,21.0292509],[105.8272147,21.0292411],[105.8272097,21.0292291],[105.827209,21.0292163],[105.8272129,21.0292039],[105.8272208,21.0291934]]]}},{"type":"Feature","properties":{"code":"TMDV","name":"","osm_id":1210489074},"geometry":{"type":"Polygon","coordinates":[[[105.8242083,21.0172339],[105.82457,21.0179113],[105.8245839,21.0179397],[105.8246038,21.0179819],[105.824629,21.0180295],[105.824754,21.0180555],[105.8249654,21.0179365],[105.825416,21.017687],[105.8256209,21.0175888],[105.8256407,21.0175102],[105.8254669,21.0172358],[105.8252499,21.0168803],[105.8251799,21.0167656],[105.8250356,21.016711],[105.8244622,21.0169877],[105.8242133,21.0171086],[105.8241961,21.0172113],[105.8242083,21.0172339]]]}},{"type":"Feature","properties":{"code":"TMDV","name":"","osm_id":1217390571},"geometry":{"type":"Polygon","coordinates":[[[105.828953,21.030682],[105.8293345,21.0302723],[105.8293785,21.0302098],[105.8295371,21.0300185],[105.8295171,21.0299086],[105.8293942,21.029281],[105.8278319,21.0295633],[105.8276452,21.0295964],[105.827657,21.0296735],[105.827936,21.0298906],[105.8281712,21.0300737],[105.828953,21.030682]]]}},{"type":"Feature","properties":{"code":"TMDV","name":"","osm_id":1217390572},"geometry":{"type":"Polygon","coordinates":[[[105.8303259,21.0301751],[105.8301383,21.0294407],[105.8300793,21.0291494],[105.8303202,21.0291016],[105.8303869,21.0294005],[105.8304159,21.0295705],[105.8307056,21.0294984],[105.8308856,21.0300325],[105.8303259,21.0301751]]]}},{"type":"Feature","properties":{"code":"TON","name":"Bích Câu Đạo Quán","osm_id":1217390576},"geometry":{"type":"Polygon","coordinates":[[[105.8330875,21.0289043],[105.8330717,21.0288461],[105.8330333,21.0288535],[105.8330173,21.0287923],[105.8330152,21.0287847],[105.8329882,21.0286858],[105.8328919,21.0284056],[105.832396,21.0285994],[105.8324151,21.0286471],[105.8325516,21.0289885],[105.8325656,21.029023],[105.8325974,21.0290172],[105.8330875,21.0289043]]]}},{"type":"Feature","properties":{"code":"TMDV","name":"","osm_id":1217390577},"geometry":{"type":"Polygon","coordinates":[[[105.8325516,21.0289885],[105.8324151,21.0286471],[105.8319217,21.0288418],[105.8320146,21.029118],[105.8325516,21.0289885]]]}},{"type":"Feature","properties":{"code":"TMDV","name":"Viện Khoa học công nghệ & Kinh tế xây dựng Hà Nội","osm_id":1217779441},"geometry":{"type":"Polygon","coordinates":[[[105.82967,21.0301743],[105.8300691,21.0300872],[105.829994,21.0298148],[105.8295171,21.0299086],[105.8295371,21.0300185],[105.82967,21.0301743]]]}},{"type":"Feature","properties":{"code":"CX","name":"","osm_id":1217779451},"geometry":{"type":"Polygon","coordinates":[[[105.8287432,21.0301175],[105.8288677,21.0300128],[105.8291114,21.0302649],[105.8289868,21.0303697],[105.8287432,21.0301175]]]}},{"type":"Feature","properties":{"code":"TMDV","name":"","osm_id":1228551926},"geometry":{"type":"Polygon","coordinates":[[[105.8313183,21.0199596],[105.8313877,21.0199778],[105.8315193,21.0199281],[105.8315607,21.0200237],[105.8314563,21.0200631],[105.8314687,21.0200918],[105.8313113,21.0201512],[105.8312927,21.0201092],[105.8311942,21.0201417],[105.8311643,21.0201447],[105.8308745,21.0202558],[105.8308472,21.0202671],[105.8307413,21.020028],[105.8309809,21.0199315],[105.8310576,21.0199021],[105.8310773,21.0199014],[105.831117,21.0200188],[105.8313183,21.0199596]]]}},{"type":"Feature","properties":{"code":"TMDV","name":"","osm_id":1231386920},"geometry":{"type":"Polygon","coordinates":[[[105.8320161,21.0304051],[105.8323295,21.0303182],[105.8322768,21.030166],[105.8320082,21.030243],[105.8319894,21.0303214],[105.8320161,21.0304051]]]}},{"type":"Feature","properties":{"code":"TMDV","name":"Viện Văn hóa, Nghệ thuật, Thể thao và Du lịch Việt Nam","osm_id":1232564358},"geometry":{"type":"Polygon","coordinates":[[[105.8271327,21.0214289],[105.8270146,21.0214779],[105.8264645,21.0217503],[105.8264599,21.0218106],[105.8265245,21.0219541],[105.8264463,21.0219846],[105.8266008,21.0222917],[105.8268915,21.0221521],[105.8269894,21.0221073],[105.8270664,21.0220551],[105.8270136,21.0219507],[105.8271983,21.0218675],[105.8270924,21.0216413],[105.8272105,21.0215923],[105.8271327,21.0214289]]]}},{"type":"Feature","properties":{"code":"TMDV","name":"","osm_id":1235727034},"geometry":{"type":"Polygon","coordinates":[[[105.8303872,21.0278749],[105.8310618,21.0277642],[105.8311176,21.0277546],[105.8310906,21.0276183],[105.8310859,21.0275957],[105.8309867,21.0275919],[105.8306998,21.0276239],[105.8306263,21.0276366],[105.8306384,21.0276979],[105.8306011,21.0277044],[105.8303577,21.0277597],[105.8303872,21.0278749]]]}},{"type":"Feature","properties":{"code":"ODT","name":"","osm_id":1246738814},"geometry":{"type":"Polygon","coordinates":[[[105.8261865,21.0221323],[105.8258177,21.0214086],[105.8256397,21.0213267],[105.8234665,21.0223264],[105.8235961,21.0227156],[105.823601,21.0227283],[105.8236227,21.0227218],[105.8236426,21.0227726],[105.823729,21.0228329],[105.8242139,21.0226673],[105.8244174,21.0232614],[105.8244853,21.0233325],[105.8245313,21.0233186],[105.8246028,21.0235172],[105.8245824,21.023527],[105.8246534,21.0237268],[105.8239939,21.0239197],[105.8240295,21.0240118],[105.823487,21.0241882],[105.8235676,21.0246223],[105.8233946,21.0246757],[105.8233639,21.0246853],[105.8231837,21.02474],[105.823214,21.0248218],[105.8228769,21.0249286],[105.8226914,21.0247168],[105.8225572,21.0244802],[105.8224685,21.0243082],[105.822367,21.0240398],[105.8222756,21.0238019],[105.8221644,21.0237014],[105.8221229,21.0235568],[105.8221874,21.023531],[105.8220471,21.023164],[105.8229096,21.0228933],[105.8230016,21.0231545],[105.8234895,21.0229658],[105.8235467,21.0228075],[105.8235178,21.0227414],[105.8233776,21.0223808],[105.8223339,21.0228182],[105.822163,21.02288],[105.822002,21.0229235],[105.821161,21.0231748],[105.8210715,21.0232024],[105.8209382,21.0232375],[105.8201652,21.0234011],[105.820201,21.0234897],[105.82015,21.0235406],[105.820286,21.0237327],[105.8203513,21.0237886],[105.821373,21.0246446],[105.8225048,21.0255849],[105.8225432,21.0255499],[105.8230541,21.0259841],[105.8231173,21.0259144],[105.8238552,21.0265778],[105.8237804,21.0266573],[105.8244923,21.027257],[105.8249698,21.0276592],[105.8255723,21.0281203],[105.8255426,21.0281601],[105.8269991,21.0291523],[105.8271049,21.0278061],[105.8269891,21.0276814],[105.8269449,21.0276339],[105.8266895,21.0279469],[105.8266211,21.0278916],[105.8266482,21.0278506],[105.8266017,21.0278097],[105.8265627,21.0277614],[105.8264269,21.0276678],[105.8264922,21.0275888],[105.8261418,21.0272853],[105.8264427,21.0269327],[105.8267669,21.0272269],[105.8270004,21.0270848],[105.826963,21.0270164],[105.826772,21.0266669],[105.8273267,21.0264935],[105.8273267,21.0262961],[105.8273293,21.0260998],[105.8270171,21.0250498],[105.8270507,21.0250377],[105.8268456,21.0242141],[105.8268146,21.0242201],[105.8266662,21.0237095],[105.826545,21.0236289],[105.8259989,21.0237751],[105.8257761,21.0238348],[105.8258303,21.024025],[105.8254936,21.0241105],[105.825411,21.0239316],[105.8253387,21.023775],[105.8252203,21.023377],[105.8255373,21.0233081],[105.8257287,21.0232546],[105.8257386,21.0229996],[105.8255342,21.022329],[105.8255303,21.0223162],[105.8261865,21.0221323]]]}},{"type":"Feature","properties":{"code":"MN","name":"","osm_id":1246738817},"geometry":{"type":"Polygon","coordinates":[[[105.8267658,21.0274418],[105.8267952,21.0273897],[105.8268293,21.0273608],[105.8268649,21.0273565],[105.8269114,21.0273709],[105.8269455,21.0274071],[105.8269796,21.0274693],[105.8269796,21.02753],[105.8269594,21.0275777],[105.8269346,21.027624],[105.8269099,21.0276413],[105.8268758,21.0276457],[105.8268138,21.0276326],[105.8267704,21.0276037],[105.826741,21.0275705],[105.8267271,21.0275285],[105.8267317,21.0274996],[105.8267441,21.0274707],[105.8267658,21.0274418]]]}},{"type":"Feature","properties":{"code":"TON","name":"","osm_id":1246738818},"geometry":{"type":"Polygon","coordinates":[[[105.8264427,21.0269327],[105.8261418,21.0272853],[105.8264922,21.0275888],[105.8264269,21.0276678],[105.8265627,21.0277614],[105.8266017,21.0278097],[105.8266482,21.0278506],[105.8266211,21.0278916],[105.8266895,21.0279469],[105.8269449,21.0276339],[105.8269891,21.0276814],[105.827026,21.0276775],[105.827065,21.0276443],[105.8270916,21.0275901],[105.8270961,21.0275244],[105.827064,21.0274463],[105.8269771,21.0272605],[105.8269688,21.027218],[105.826975,21.0271799],[105.8270121,21.0270694],[105.8270109,21.0270355],[105.8269917,21.0269986],[105.826963,21.0270164],[105.8270004,21.0270848],[105.8267669,21.0272269],[105.8264427,21.0269327]]]}},{"type":"Feature","properties":{"code":"CX","name":"","osm_id":1296771118},"geometry":{"type":"Polygon","coordinates":[[[105.8249307,21.0265454],[105.8251259,21.0263433],[105.8249506,21.0261958],[105.8247555,21.0263979],[105.8249307,21.0265454]]]}},{"type":"Feature","properties":{"code":"QP","name":"","osm_id":1296771122},"geometry":{"type":"Polygon","coordinates":[[[105.8252716,21.027123],[105.8249157,21.0268253],[105.8249388,21.026798],[105.8248541,21.026716],[105.8247771,21.0268009],[105.8242409,21.0262983],[105.824904,21.025627],[105.8252613,21.0259321],[105.825378,21.0260716],[105.8254376,21.0261668],[105.8254606,21.0262114],[105.8255013,21.0261932],[105.8255473,21.0263138],[105.8253385,21.0264211],[105.8254978,21.0267878],[105.825604,21.026915],[105.8252716,21.027123]]]}},{"type":"Feature","properties":{"code":"ODT","name":"","osm_id":1305508746},"geometry":{"type":"Polygon","coordinates":[[[105.8335575,21.0305679],[105.8335745,21.030615],[105.8335866,21.0306516],[105.8336512,21.0306327],[105.8337712,21.030991],[105.8337877,21.0310425],[105.8337227,21.0310613],[105.8337064,21.0310099],[105.833676,21.0309192],[105.8336359,21.0308005],[105.8336056,21.0308093],[105.8336023,21.0307994],[105.8335393,21.0308176],[105.8334746,21.0308364],[105.8334781,21.0308486],[105.8334477,21.0308572],[105.8334199,21.0308652],[105.8333895,21.0308736],[105.8333589,21.0308823],[105.8333293,21.0308907],[105.8333219,21.0308928],[105.833385,21.0310787],[105.8334103,21.0311535],[105.8329319,21.0312937],[105.8328613,21.0310862],[105.8326977,21.0311347],[105.8326278,21.0309291],[105.8326997,21.0309081],[105.8328233,21.0308733],[105.8328363,21.0309104],[105.8329185,21.0308858],[105.8329391,21.0308797],[105.8329169,21.030812],[105.8329053,21.0307739],[105.8329024,21.0307653],[105.8335575,21.0305679]]]}},{"type":"Feature","properties":{"code":"TMDV","name":"","osm_id":1305508750},"geometry":{"type":"Polygon","coordinates":[[[105.8328613,21.0310862],[105.8326977,21.0311347],[105.832736,21.0312484],[105.8327464,21.031263],[105.8328421,21.0313069],[105.8328595,21.0313101],[105.8329319,21.0312937],[105.8328613,21.0310862]]]}},{"type":"Feature","properties":{"code":"TMDV","name":"","osm_id":1305508751},"geometry":{"type":"Polygon","coordinates":[[[105.8326278,21.0309291],[105.8325738,21.0307678],[105.8326274,21.0307491],[105.8326399,21.0307839],[105.832743,21.0307529],[105.8328869,21.0307131],[105.8328975,21.0307494],[105.8329024,21.0307653],[105.8329053,21.0307739],[105.8329169,21.030812],[105.8329391,21.0308797],[105.8329185,21.0308858],[105.8328363,21.0309104],[105.8328233,21.0308733],[105.8326997,21.0309081],[105.8326278,21.0309291]]]}},{"type":"Feature","properties":{"code":"TMDV","name":"","osm_id":1305508752},"geometry":{"type":"Polygon","coordinates":[[[105.8335575,21.0305679],[105.8337924,21.0304833],[105.8338289,21.0304784],[105.8338516,21.0304946],[105.8339629,21.0308407],[105.8339716,21.0309739],[105.833956,21.0309917],[105.8339299,21.031008],[105.8337877,21.0310425],[105.8337712,21.030991],[105.8336512,21.0306327],[105.8335866,21.0306516],[105.8335745,21.030615],[105.8335575,21.0305679]]]}},{"type":"Feature","properties":{"code":"TMDV","name":"","osm_id":1305509512},"geometry":{"type":"Polygon","coordinates":[[[105.8349269,21.0305025],[105.8351455,21.0304346],[105.8351312,21.0303975],[105.835235,21.0303707],[105.8351996,21.0302666],[105.8351831,21.0302707],[105.8351739,21.0302461],[105.8351205,21.0302589],[105.835116,21.0302449],[105.8346457,21.0303767],[105.8346663,21.0304408],[105.8346524,21.0304447],[105.8346855,21.0305479],[105.8346914,21.0305725],[105.834855,21.0305304],[105.8349211,21.0307234],[105.8349681,21.0307094],[105.8349302,21.0305986],[105.8349561,21.0305909],[105.8349269,21.0305025]]]}},{"type":"Feature","properties":{"code":"TMDV","name":"","osm_id":1305509513},"geometry":{"type":"Polygon","coordinates":[[[105.8355459,21.0303186],[105.8356892,21.0304469],[105.8357076,21.0304917],[105.8353484,21.0305989],[105.8352806,21.0303958],[105.8355459,21.0303186]]]}},{"type":"Feature","properties":{"code":"ODT","name":"","osm_id":1305509514},"geometry":{"type":"Polygon","coordinates":[[[105.8342086,21.0308327],[105.8342052,21.0308582],[105.8342252,21.0308916],[105.8342419,21.0309006],[105.8342725,21.0309021],[105.8349211,21.0307234],[105.834855,21.0305304],[105.8346914,21.0305725],[105.8346855,21.0305479],[105.8346524,21.0304447],[105.8346663,21.0304408],[105.8346457,21.0303767],[105.835116,21.0302449],[105.8351205,21.0302589],[105.8351739,21.0302461],[105.8351831,21.0302707],[105.8351996,21.0302666],[105.835235,21.0303707],[105.8351312,21.0303975],[105.8351455,21.0304346],[105.8349269,21.0305025],[105.8349561,21.0305909],[105.8349302,21.0305986],[105.8349681,21.0307094],[105.8353484,21.0305989],[105.8352806,21.0303958],[105.8355459,21.0303186],[105.8356892,21.0304469],[105.8357076,21.0304917],[105.8358504,21.0304012],[105.8358747,21.0303719],[105.835881,21.0303491],[105.8358735,21.0303282],[105.8351748,21.0293404],[105.8351547,21.0293226],[105.8351212,21.0293164],[105.8350876,21.0293174],[105.8350664,21.029332],[105.8350462,21.029355],[105.8342086,21.0308327]]]}},{"type":"Feature","properties":{"code":"GD","name":"Trường Mầm non Cát Linh (phân hiệu 2)","osm_id":1306087175},"geometry":{"type":"Polygon","coordinates":[[[105.833385,21.0310787],[105.8334103,21.0311535],[105.8335663,21.0311083],[105.8335408,21.0310331],[105.8334781,21.0308486],[105.8334477,21.0308572],[105.8334199,21.0308652],[105.8333895,21.0308736],[105.8333589,21.0308823],[105.8333293,21.0308907],[105.8333219,21.0308928],[105.833385,21.0310787]]]}},{"type":"Feature","properties":{"code":"TMDV","name":"","osm_id":1306087176},"geometry":{"type":"Polygon","coordinates":[[[105.8335663,21.0311083],[105.8337227,21.0310613],[105.8337064,21.0310099],[105.833676,21.0309192],[105.8336359,21.0308005],[105.8336056,21.0308093],[105.8336023,21.0307994],[105.8335393,21.0308176],[105.8334746,21.0308364],[105.8334781,21.0308486],[105.8335408,21.0310331],[105.8335663,21.0311083]]]}},{"type":"Feature","properties":{"code":"TON","name":"","osm_id":1315344015},"geometry":{"type":"Polygon","coordinates":[[[105.8315491,21.0227675],[105.8316201,21.0227193],[105.8316511,21.0227034],[105.8316895,21.022675],[105.83165,21.0225854],[105.831564,21.0226473],[105.8314944,21.0226945],[105.8315091,21.0227133],[105.831461,21.0227459],[105.8314876,21.0227801],[105.8315342,21.0227484],[105.8315491,21.0227675]]]}},{"type":"Feature","properties":{"code":"TON","name":"","osm_id":1315344018},"geometry":{"type":"Polygon","coordinates":[[[105.8354547,21.0237526],[105.835512,21.023695],[105.8355882,21.0237662],[105.8355689,21.0237852],[105.8355771,21.0237918],[105.8354936,21.0238555],[105.835476,21.0238394],[105.835429,21.0238843],[105.8353933,21.0238517],[105.8354436,21.0238036],[105.835422,21.0237839],[105.8354547,21.0237526]]]}},{"type":"Feature","properties":{"code":"TMDV","name":"Tổng Công ty Tư vấn Thiết kế Giao thông Vận tải","osm_id":1317395352},"geometry":{"type":"Polygon","coordinates":[[[105.8290115,21.0208638],[105.8289165,21.020718],[105.8288893,21.0206904],[105.828791,21.0205302],[105.8287596,21.0204512],[105.8286895,21.0203],[105.8290316,21.0201017],[105.8291985,21.020021],[105.8295044,21.019838],[105.8295132,21.0198527],[105.8295491,21.0199051],[105.829627,21.0198586],[105.8297155,21.0199879],[105.8297247,21.0199823],[105.8297754,21.0200563],[105.8297649,21.0200625],[105.8298241,21.0201488],[105.8298757,21.0201169],[105.8299866,21.0202739],[105.8299766,21.0202818],[105.8298001,21.0203825],[105.8297761,21.0203454],[105.8296701,21.0204063],[105.8296807,21.0204221],[105.8296348,21.0204454],[105.8295607,21.020488],[105.8295514,21.0204739],[105.8291705,21.0206927],[105.829209,21.0207518],[105.8290115,21.0208638]]]}},{"type":"Feature","properties":{"code":"GD","name":"Trường Trung học cơ sở Cát Linh - Phân hiệu Tô Vĩnh Diện","osm_id":1317395355},"geometry":{"type":"Polygon","coordinates":[[[105.8281269,21.0219701],[105.8286262,21.0218383],[105.8286937,21.0218209],[105.8286261,21.0215959],[105.8285879,21.0214694],[105.8282095,21.0215692],[105.8281693,21.0215768],[105.8282212,21.0216081],[105.8282921,21.0218423],[105.8281033,21.0218921],[105.8281269,21.0219701]]]}},{"type":"Feature","properties":{"code":"YT","name":"Bệnh viện Đa khoa Tràng An","osm_id":1421773641},"geometry":{"type":"Polygon","coordinates":[[[105.835014,21.0256177],[105.83518,21.0258029],[105.8352584,21.0258955],[105.835363,21.0258386],[105.8353818,21.0258661],[105.8356762,21.0257459],[105.8356098,21.025637],[105.8354978,21.0255369],[105.8353014,21.0254837],[105.835014,21.0256177]]]}},{"type":"Feature","properties":{"code":"GD","name":"Trường Mầm non Ô Chợ Dừa (phân hiệu 1)","osm_id":1548790954},"geometry":{"type":"Polygon","coordinates":[[[105.8272184,21.0256617],[105.8272087,21.0256273],[105.8271985,21.0255839],[105.8271797,21.0255173],[105.8270638,21.0255458],[105.827076,21.0255891],[105.8270315,21.0256],[105.82706,21.0257008],[105.8272184,21.0256617]]]}},{"type":"Feature","properties":{"code":"GD","name":"Trường Mầm non Cát Linh (phân hiệu 1)","osm_id":1548790955},"geometry":{"type":"Polygon","coordinates":[[[105.8293256,21.0236185],[105.8294879,21.0240114],[105.8300228,21.023817],[105.8299563,21.023661],[105.8298893,21.0236825],[105.8297862,21.0234471],[105.8293256,21.0236185]]]}},{"type":"Feature","properties":{"code":"TON","name":"Đền Sòng Sơn","osm_id":1557512919},"geometry":{"type":"Polygon","coordinates":[[[105.8339381,21.0269512],[105.8340488,21.0269149],[105.8341445,21.0268836],[105.8341152,21.0268058],[105.8340196,21.0268371],[105.8339088,21.0268734],[105.8339381,21.0269512]]]}},{"type":"Feature","properties":{"code":"MN","name":"","osm_id":1557512926},"geometry":{"type":"Polygon","coordinates":[[[105.8218301,21.0211757],[105.8218492,21.0211684],[105.8218699,21.0211685],[105.821889,21.0211759],[105.8219036,21.0211896],[105.8219115,21.0212075],[105.8219114,21.0212268],[105.8219034,21.0212447],[105.8218888,21.0212583],[105.8218696,21.0212656],[105.8218489,21.0212656],[105.8218298,21.0212581],[105.8218152,21.0212444],[105.8218073,21.0212265],[105.8218074,21.0212072],[105.8218154,21.0211894],[105.8218301,21.0211757]]]}}]}