{"type":"FeatureCollection","features":[{"type":"Feature","properties":{"osm_id":11711536,"name":"Phố Trịnh Hoài Đức","highway":"tertiary","width":0},"geometry":{"type":"LineString","coordinates":[[105.8318238,21.0287574],[105.8318367,21.0288077],[105.8319699,21.029207]]}},{"type":"Feature","properties":{"osm_id":27989749,"name":"Phố Cát Linh","highway":"tertiary","width":0},"geometry":{"type":"LineString","coordinates":[[105.8341732,21.0278309],[105.8340863,21.0278673],[105.8336896,21.0280189],[105.833564,21.0280674],[105.833445,21.0281154],[105.8332539,21.0281923]]}},{"type":"Feature","properties":{"osm_id":28191500,"name":"Phố Vũ Thạnh","highway":"tertiary","width":0},"geometry":{"type":"LineString","coordinates":[[105.8248143,21.0276475],[105.8248723,21.0275897],[105.825105,21.0273488],[105.8252866,21.027163],[105.8254399,21.0270519],[105.825561,21.026971],[105.8258072,21.0268257],[105.8261857,21.0266551],[105.8264967,21.0265512],[105.8266012,21.0265136],[105.8268774,21.0264261],[105.8271242,21.0263461],[105.8273425,21.0262792],[105.827496,21.0262322]]}},{"type":"Feature","properties":{"osm_id":37734136,"name":"Phố Giảng Võ","highway":"primary","width":0},"geometry":{"type":"LineString","coordinates":[[105.8202374,21.023779],[105.8202553,21.0237907],[105.8204649,21.023973],[105.8206766,21.0241571],[105.8208414,21.0243004],[105.8211321,21.0245431],[105.8218932,21.0251753]]}},{"type":"Feature","properties":{"osm_id":37891457,"name":"Đường La Thành","highway":"tertiary","width":0},"geometry":{"type":"LineString","coordinates":[[105.8205674,21.0232275],[105.8205846,21.0232246],[105.8207135,21.0231985],[105.8210095,21.0231385],[105.8211395,21.023105],[105.8212979,21.0230519],[105.8221107,21.02279],[105.8222234,21.022746],[105.8222771,21.0227251],[105.8231978,21.0223659],[105.8234066,21.0222774],[105.8234695,21.0222527],[105.8240286,21.0220217],[105.8240908,21.0219954],[105.8245524,21.0217898],[105.8255579,21.0213209]]}},{"type":"Feature","properties":{"osm_id":178099621,"name":"Phố Tôn Đức Thắng","highway":"secondary","width":0},"geometry":{"type":"LineString","coordinates":[[105.8300353,21.0190116],[105.8299424,21.0188712]]}},{"type":"Feature","properties":{"osm_id":179990709,"name":"Phố Hoàng Cầu","highway":"secondary","width":0},"geometry":{"type":"LineString","coordinates":[[105.8232227,21.0165348],[105.823151,21.0165065],[105.8230767,21.0164878],[105.8230022,21.0164777],[105.8222667,21.0164636],[105.8217641,21.0164718],[105.8215293,21.0164681],[105.8213773,21.0164667],[105.8213011,21.016461],[105.8212294,21.0164488],[105.8211689,21.016422],[105.821097,21.0163809],[105.8210325,21.0163245],[105.8209323,21.0162252],[105.8207744,21.0160627],[105.8205273,21.0158203],[105.8200999,21.015375]]}},{"type":"Feature","properties":{"osm_id":180083167,"name":"Phố Đặng Tiến Đông","highway":"tertiary","width":0},"geometry":{"type":"LineString","coordinates":[[105.8172454,21.0172555],[105.8176258,21.0166537],[105.8176985,21.016623],[105.8177649,21.016602],[105.8178572,21.0166188],[105.8179008,21.0166382],[105.8180561,21.0167073],[105.8182778,21.0168502],[105.8186164,21.0170686],[105.8186889,21.0170884],[105.8187316,21.0170893],[105.8187946,21.0170807],[105.8189634,21.0168833],[105.8192482,21.0165501],[105.8196244,21.0160317],[105.8196667,21.0159546],[105.8200606,21.0154275],[105.8200999,21.015375]]}},{"type":"Feature","properties":{"osm_id":194581841,"name":"Phố Hào Nam","highway":"secondary","width":0},"geometry":{"type":"LineString","coordinates":[[105.8260889,21.0213907],[105.8262373,21.0217541],[105.8263876,21.0220651],[105.8264242,21.0221438],[105.8265139,21.0223454],[105.8265781,21.0225031],[105.826613,21.0225991],[105.8266564,21.0227327],[105.8266982,21.0228598],[105.8267558,21.0230519],[105.8267657,21.0230936],[105.8270572,21.024139],[105.8270773,21.0242207],[105.827367,21.0251872],[105.8274054,21.0253464],[105.8274597,21.0255485]]}},{"type":"Feature","properties":{"osm_id":207272547,"name":"Phố Hoàng Cầu","highway":"secondary","width":0},"geometry":{"type":"LineString","coordinates":[[105.8242829,21.0179336],[105.8243187,21.0179999],[105.824457,21.0182561],[105.8245714,21.0184795],[105.8248234,21.0189604],[105.824898,21.0191072],[105.8249418,21.0191894],[105.8251285,21.0195398],[105.8253623,21.0200118]]}},{"type":"Feature","properties":{"osm_id":408761980,"name":"Phố Nguyễn Thái Học","highway":"primary","width":0},"geometry":{"type":"LineString","coordinates":[[105.8299959,21.0321698],[105.830216,21.0321081],[105.8303136,21.0320794],[105.8305036,21.0320276],[105.8309154,21.0319123],[105.8311214,21.0318546],[105.8314244,21.0317698],[105.8321414,21.0315691],[105.8325922,21.0314429],[105.8327536,21.0313977]]}},{"type":"Feature","properties":{"osm_id":506383095,"name":"Phố Ô Chợ Dừa","highway":"primary","width":0},"geometry":{"type":"LineString","coordinates":[[105.8256907,21.0206311],[105.8257331,21.0206137],[105.8258314,21.0205777],[105.8259249,21.0205333],[105.827027,21.0199082],[105.8271909,21.0198124],[105.8274952,21.0196479],[105.8276693,21.0195506],[105.8283828,21.0191551]]}},{"type":"Feature","properties":{"osm_id":506383096,"name":"Phố Tôn Đức Thắng","highway":"secondary","width":0},"geometry":{"type":"LineString","coordinates":[[105.8303066,21.01926],[105.8306827,21.0200819],[105.8307261,21.0201732],[105.8307833,21.0202925],[105.8309762,21.0206951]]}},{"type":"Feature","properties":{"osm_id":570573008,"name":"Phố An Trạch","highway":"tertiary","width":0},"geometry":{"type":"LineString","coordinates":[[105.8289775,21.0275059],[105.8289982,21.0275146],[105.8292847,21.0276518],[105.8294152,21.0277124],[105.8295693,21.0277544],[105.8301864,21.0276428],[105.8305672,21.0275797],[105.8309598,21.0275146],[105.8313195,21.027544],[105.8314779,21.0276282],[105.8315984,21.0282054]]}},{"type":"Feature","properties":{"osm_id":571026091,"name":"","highway":"tertiary","width":0},"geometry":{"type":"LineString","coordinates":[[105.827496,21.0262322],[105.8276471,21.0261865]]}},{"type":"Feature","properties":{"osm_id":571026093,"name":"Phố Hào Nam","highway":"secondary","width":0},"geometry":{"type":"LineString","coordinates":[[105.8275002,21.0288101],[105.8275232,21.0288692],[105.8275216,21.0290024],[105.8275162,21.02907],[105.8275083,21.0291682],[105.8274779,21.0293206],[105.8274018,21.0293992]]}},{"type":"Feature","properties":{"osm_id":599146719,"name":"Phố Xã Đàn","highway":"primary","width":0},"geometry":{"type":"LineString","coordinates":[[105.8298561,21.0182938],[105.8296963,21.018444]]}},{"type":"Feature","properties":{"osm_id":599146728,"name":"Phố Tôn Đức Thắng","highway":"secondary","width":0},"geometry":{"type":"LineString","coordinates":[[105.8322695,21.0235133],[105.8324017,21.023802]]}},{"type":"Feature","properties":{"osm_id":599146734,"name":"Phố Tôn Đức Thắng","highway":"secondary","width":0},"geometry":{"type":"LineString","coordinates":[[105.8321545,21.0234448],[105.8321221,21.0233735],[105.8317941,21.0226498],[105.8315885,21.0221961],[105.8315287,21.0220643],[105.8313569,21.0216853],[105.8312966,21.0215622],[105.830986,21.0208954]]}},{"type":"Feature","properties":{"osm_id":599162434,"name":"Phố Chu Văn An","highway":"secondary","width":0},"geometry":{"type":"LineString","coordinates":[[105.8361388,21.030881],[105.8360873,21.030812],[105.8360416,21.030546],[105.8360208,21.0304792],[105.8360064,21.0304587]]}},{"type":"Feature","properties":{"osm_id":599635981,"name":"Phố Cát Linh","highway":"tertiary","width":0},"geometry":{"type":"LineString","coordinates":[[105.8318238,21.0287574],[105.8317295,21.0287894],[105.8309241,21.0289418],[105.8308124,21.0289625],[105.8301595,21.0290822],[105.8300573,21.0291024],[105.8299576,21.0291222]]}},{"type":"Feature","properties":{"osm_id":599635985,"name":"Phố Cát Linh","highway":"tertiary","width":0},"geometry":{"type":"LineString","coordinates":[[105.8326331,21.0283721],[105.8330272,21.0282145],[105.8334156,21.0280593]]}},{"type":"Feature","properties":{"osm_id":600037932,"name":"Đường La Thành","highway":"secondary","width":0},"geometry":{"type":"LineString","coordinates":[[105.8301962,21.0189764],[105.8301111,21.0189926],[105.8300353,21.0190116]]}},{"type":"Feature","properties":{"osm_id":621977218,"name":"Phố Hào Nam","highway":"secondary","width":0},"geometry":{"type":"LineString","coordinates":[[105.8270768,21.0246572],[105.8269543,21.0242482],[105.8269312,21.0241688],[105.8267587,21.0235446],[105.8266383,21.0231269],[105.8266277,21.0230828],[105.8265834,21.02293],[105.8265482,21.0228147],[105.8265034,21.0226887],[105.8264798,21.0226321],[105.8263714,21.0223677],[105.8262898,21.0221979],[105.826251,21.022117],[105.8261814,21.0219749],[105.8259596,21.0215474]]}},{"type":"Feature","properties":{"osm_id":683855297,"name":"Phố Ô Chợ Dừa","highway":"primary","width":0},"geometry":{"type":"LineString","coordinates":[[105.8291924,21.0186077],[105.8293322,21.0184656],[105.8294157,21.0183773],[105.8295901,21.0181958]]}},{"type":"Feature","properties":{"osm_id":693495180,"name":"","highway":"tertiary","width":0},"geometry":{"type":"LineString","coordinates":[[105.8318088,21.0286941],[105.8318238,21.0287574]]}},{"type":"Feature","properties":{"osm_id":703425766,"name":"Phố Lê Trực","highway":"tertiary","width":0},"geometry":{"type":"LineString","coordinates":[[105.8327536,21.0313977],[105.8328071,21.0315213],[105.8329498,21.0318432],[105.8330596,21.0320909],[105.833105,21.0322249]]}},{"type":"Feature","properties":{"osm_id":707354681,"name":"Phố Hào Nam","highway":"secondary","width":0},"geometry":{"type":"LineString","coordinates":[[105.8273932,21.0294365],[105.8273507,21.0295689]]}},{"type":"Feature","properties":{"osm_id":708514872,"name":"Phố Nguyễn Thái Học","highway":"primary","width":0},"geometry":{"type":"LineString","coordinates":[[105.8355329,21.0305984],[105.835746,21.0305355],[105.8359112,21.0304888],[105.8360064,21.0304587]]}},{"type":"Feature","properties":{"osm_id":708514873,"name":"Phố Nguyễn Thái Học","highway":"primary","width":0},"geometry":{"type":"LineString","coordinates":[[105.8360064,21.0304587],[105.8360782,21.0304375]]}},{"type":"Feature","properties":{"osm_id":708891235,"name":"Đường La Thành","highway":"secondary","width":0},"geometry":{"type":"LineString","coordinates":[[105.8255579,21.0213209],[105.8255978,21.0212777],[105.8257041,21.0212058],[105.8257757,21.0211704]]}},{"type":"Feature","properties":{"osm_id":708891236,"name":"Đường La Thành","highway":"secondary","width":0},"geometry":{"type":"LineString","coordinates":[[105.8259741,21.0211528],[105.8258047,21.0212306]]}},{"type":"Feature","properties":{"osm_id":708891237,"name":"Đường La Thành","highway":"tertiary","width":0},"geometry":{"type":"LineString","coordinates":[[105.8262805,21.0209797],[105.8273084,21.0205083],[105.827734,21.0202393],[105.8278701,21.0201668],[105.8284768,21.0198448],[105.8290111,21.0195084],[105.8291368,21.0194364],[105.829659,21.0191776]]}},{"type":"Feature","properties":{"osm_id":708903073,"name":"Phố Ô Chợ Dừa","highway":"primary","width":0},"geometry":{"type":"LineString","coordinates":[[105.8257942,21.0208211],[105.8257323,21.0208522],[105.8256318,21.0209028]]}},{"type":"Feature","properties":{"osm_id":708903075,"name":"Phố Hoàng Cầu","highway":"secondary","width":0},"geometry":{"type":"LineString","coordinates":[[105.8257757,21.0211704],[105.8257419,21.0211036],[105.8256622,21.0209604],[105.8256318,21.0209028]]}},{"type":"Feature","properties":{"osm_id":708903076,"name":"Phố Hoàng Cầu","highway":"secondary","width":0},"geometry":{"type":"LineString","coordinates":[[105.8256907,21.0206311],[105.8257942,21.0208211]]}},{"type":"Feature","properties":{"osm_id":708914976,"name":"Phố Hoàng Cầu","highway":"secondary","width":0},"geometry":{"type":"LineString","coordinates":[[105.8255177,21.0206878],[105.8254351,21.020508],[105.8251233,21.0198656]]}},{"type":"Feature","properties":{"osm_id":708928718,"name":"Phố Mai Anh Tuấn","highway":"tertiary","width":0},"geometry":{"type":"LineString","coordinates":[[105.8210503,21.0190995],[105.820736,21.0191407],[105.8199439,21.0191782],[105.8196938,21.0191323],[105.8194339,21.01908],[105.8193248,21.0190549],[105.8192472,21.0190268],[105.8188279,21.0188148],[105.8186668,21.0187051],[105.8182042,21.0183173],[105.8179318,21.0180361],[105.817666,21.0177612],[105.8172454,21.0172555]]}},{"type":"Feature","properties":{"osm_id":708944663,"name":"Phố Hào Nam","highway":"secondary","width":0},"geometry":{"type":"LineString","coordinates":[[105.8259408,21.0210924],[105.8259741,21.0211528]]}},{"type":"Feature","properties":{"osm_id":708944664,"name":"Phố Hoàng Cầu","highway":"secondary","width":0},"geometry":{"type":"LineString","coordinates":[[105.8258047,21.0212306],[105.8257757,21.0211704]]}},{"type":"Feature","properties":{"osm_id":708960888,"name":"Phố Hoàng Cầu","highway":"secondary","width":0},"geometry":{"type":"LineString","coordinates":[[105.8256318,21.0209028],[105.8255727,21.0207993],[105.8255177,21.0206878]]}},{"type":"Feature","properties":{"osm_id":708995000,"name":"Phố Hào Nam","highway":"secondary","width":0},"geometry":{"type":"LineString","coordinates":[[105.8259596,21.0215474],[105.8258879,21.0213994]]}},{"type":"Feature","properties":{"osm_id":709017797,"name":"Phố Hoàng Cầu","highway":"secondary","width":0},"geometry":{"type":"LineString","coordinates":[[105.8257942,21.0208211],[105.8259075,21.0210283],[105.8259408,21.0210924]]}},{"type":"Feature","properties":{"osm_id":710216464,"name":"Phố Cát Linh","highway":"tertiary","width":0},"geometry":{"type":"LineString","coordinates":[[105.8341305,21.0277474],[105.8342281,21.0277521]]}},{"type":"Feature","properties":{"osm_id":710216465,"name":"Phố Cát Linh","highway":"tertiary","width":0},"geometry":{"type":"LineString","coordinates":[[105.8342281,21.0277521],[105.8341732,21.0278309]]}},{"type":"Feature","properties":{"osm_id":710235083,"name":"Phố Cát Linh","highway":"tertiary","width":0},"geometry":{"type":"LineString","coordinates":[[105.8322979,21.0285688],[105.8319632,21.0286957],[105.8318238,21.0287574]]}},{"type":"Feature","properties":{"osm_id":710235084,"name":"Phố Cát Linh","highway":"tertiary","width":0},"geometry":{"type":"LineString","coordinates":[[105.8332539,21.0281923],[105.8326573,21.0284272]]}},{"type":"Feature","properties":{"osm_id":710235085,"name":"Phố Cát Linh","highway":"tertiary","width":0},"geometry":{"type":"LineString","coordinates":[[105.8326573,21.0284272],[105.8322979,21.0285688]]}},{"type":"Feature","properties":{"osm_id":710264445,"name":"Phố Hào Nam","highway":"secondary","width":0},"geometry":{"type":"LineString","coordinates":[[105.8276909,21.0268084],[105.8276713,21.0267955],[105.827654,21.0267795],[105.827642,21.026762],[105.8276288,21.0267362],[105.8276225,21.0267176],[105.8276185,21.0266957],[105.8276198,21.0266683],[105.8276264,21.0266483],[105.8276362,21.0266314]]}},{"type":"Feature","properties":{"osm_id":710271827,"name":"Phố Hào Nam","highway":"secondary","width":0},"geometry":{"type":"LineString","coordinates":[[105.8276362,21.0266314],[105.8275674,21.0264161],[105.827496,21.0262322]]}},{"type":"Feature","properties":{"osm_id":710279559,"name":"Phố Hào Nam","highway":"secondary","width":0},"geometry":{"type":"LineString","coordinates":[[105.8272089,21.0252373],[105.8271668,21.0250521],[105.8271241,21.0248725],[105.8270768,21.0246572]]}},{"type":"Feature","properties":{"osm_id":710279560,"name":"Phố Hào Nam","highway":"secondary","width":0},"geometry":{"type":"LineString","coordinates":[[105.8273983,21.0259516],[105.8272476,21.0253864],[105.8272089,21.0252373]]}},{"type":"Feature","properties":{"osm_id":710298223,"name":"Phố Xã Đàn","highway":"primary","width":0},"geometry":{"type":"LineString","coordinates":[[105.8295901,21.0181958],[105.8297141,21.0180563]]}},{"type":"Feature","properties":{"osm_id":710298224,"name":"Đường La Thành","highway":"tertiary","width":0},"geometry":{"type":"LineString","coordinates":[[105.8300353,21.0190116],[105.82981,21.0191076],[105.829659,21.0191776]]}},{"type":"Feature","properties":{"osm_id":710344383,"name":"Phố Cát Linh","highway":"tertiary","width":0},"geometry":{"type":"LineString","coordinates":[[105.8318088,21.0286941],[105.8319375,21.0286386],[105.8326331,21.0283721]]}},{"type":"Feature","properties":{"osm_id":711101759,"name":"Phố Ô Chợ Dừa","highway":"primary","width":0},"geometry":{"type":"LineString","coordinates":[[105.8291813,21.0189074],[105.8289572,21.0190536],[105.8287475,21.0191824],[105.8286247,21.0192495],[105.8284904,21.019326],[105.8277795,21.0197225],[105.8275801,21.0198217],[105.8272826,21.0199735],[105.8271174,21.0200666],[105.8261973,21.0205938],[105.8261307,21.02063],[105.8259242,21.0207422],[105.8257942,21.0208211]]}},{"type":"Feature","properties":{"osm_id":711101761,"name":"Phố Tôn Đức Thắng","highway":"primary","width":0},"geometry":{"type":"LineString","coordinates":[[105.8296963,21.018444],[105.8295901,21.0181958]]}},{"type":"Feature","properties":{"osm_id":711106354,"name":"Phố Tôn Đức Thắng","highway":"secondary","width":0},"geometry":{"type":"LineString","coordinates":[[105.8301962,21.0189764],[105.8302432,21.0191059],[105.8303066,21.01926]]}},{"type":"Feature","properties":{"osm_id":711109718,"name":"Phố Ô Chợ Dừa","highway":"primary","width":0},"geometry":{"type":"LineString","coordinates":[[105.8283828,21.0191551],[105.8285186,21.0190792],[105.8286856,21.0189861],[105.8288346,21.0188888],[105.8290459,21.0187339],[105.8291924,21.0186077]]}},{"type":"Feature","properties":{"osm_id":711379961,"name":"Phố Giảng Võ","highway":"primary","width":0},"geometry":{"type":"LineString","coordinates":[[105.8260244,21.0285731],[105.8260984,21.0286256],[105.8263969,21.028835],[105.8267655,21.0291093],[105.8270037,21.0292856],[105.8271465,21.0293776],[105.827209,21.0294135]]}},{"type":"Feature","properties":{"osm_id":711400669,"name":"Phố Hào Nam","highway":"secondary","width":0},"geometry":{"type":"LineString","coordinates":[[105.8274018,21.0293992],[105.8273698,21.0293022],[105.8274209,21.0291709],[105.8274551,21.0290081],[105.827468,21.0288691],[105.8275002,21.0288101]]}},{"type":"Feature","properties":{"osm_id":711400670,"name":"Phố Hào Nam","highway":"secondary","width":0},"geometry":{"type":"LineString","coordinates":[[105.8276136,21.0275582],[105.8275687,21.0280586],[105.8275594,21.0281555],[105.8275298,21.0284861]]}},{"type":"Feature","properties":{"osm_id":711401833,"name":"Phố Cát Linh","highway":"tertiary","width":0},"geometry":{"type":"LineString","coordinates":[[105.8299453,21.0290504],[105.830144,21.0290206],[105.8307007,21.0289182],[105.8307999,21.0288981],[105.8309103,21.0288761],[105.8310646,21.0288474],[105.8312876,21.0288059],[105.8314334,21.0287779],[105.8317137,21.0287216],[105.8318088,21.0286941]]}},{"type":"Feature","properties":{"osm_id":711495153,"name":"Phố Tôn Đức Thắng","highway":"secondary","width":0},"geometry":{"type":"LineString","coordinates":[[105.8341732,21.0278309],[105.8341305,21.0277474]]}},{"type":"Feature","properties":{"osm_id":711495154,"name":"Phố Tôn Đức Thắng","highway":"secondary","width":0},"geometry":{"type":"LineString","coordinates":[[105.8351408,21.0292001],[105.8350755,21.0291061],[105.8348712,21.0288185],[105.8342141,21.0278936],[105.8341732,21.0278309]]}},{"type":"Feature","properties":{"osm_id":711495155,"name":"Phố Tôn Đức Thắng","highway":"secondary","width":0},"geometry":{"type":"LineString","coordinates":[[105.8338027,21.0268477],[105.8341785,21.0276466],[105.8342281,21.0277521]]}},{"type":"Feature","properties":{"osm_id":711497991,"name":"Phố Tôn Đức Thắng","highway":"secondary","width":0},"geometry":{"type":"LineString","coordinates":[[105.8341305,21.0277474],[105.834098,21.0276774]]}},{"type":"Feature","properties":{"osm_id":711506044,"name":"Phố Trịnh Hoài Đức","highway":"tertiary","width":0},"geometry":{"type":"LineString","coordinates":[[105.8319699,21.029207],[105.8321536,21.0297303],[105.8322641,21.0300264],[105.8326837,21.0312263],[105.8327536,21.0313977]]}},{"type":"Feature","properties":{"osm_id":711506045,"name":"Phố Cát Linh","highway":"tertiary","width":0},"geometry":{"type":"LineString","coordinates":[[105.8283922,21.0294071],[105.8293664,21.029233],[105.8294097,21.0292249],[105.8294382,21.0292191]]}},{"type":"Feature","properties":{"osm_id":711708475,"name":"Phố Hào Nam","highway":"secondary","width":0},"geometry":{"type":"LineString","coordinates":[[105.8276471,21.0261865],[105.8277197,21.0263735],[105.8278032,21.0265949]]}},{"type":"Feature","properties":{"osm_id":711708476,"name":"Phố Hào Nam","highway":"secondary","width":0},"geometry":{"type":"LineString","coordinates":[[105.8274597,21.0255485],[105.8275043,21.0257152],[105.8275557,21.0259186]]}},{"type":"Feature","properties":{"osm_id":711708477,"name":"Phố Hào Nam","highway":"secondary","width":0},"geometry":{"type":"LineString","coordinates":[[105.8275557,21.0259186],[105.8275844,21.0260273],[105.8276471,21.0261865]]}},{"type":"Feature","properties":{"osm_id":711708478,"name":"Phố Hào Nam","highway":"secondary","width":0},"geometry":{"type":"LineString","coordinates":[[105.8259741,21.0211528],[105.8259941,21.0211924],[105.8260889,21.0213907]]}},{"type":"Feature","properties":{"osm_id":711710155,"name":"Phố Giảng Võ","highway":"primary","width":0},"geometry":{"type":"LineString","coordinates":[[105.827209,21.0294135],[105.8272862,21.0294732],[105.8273167,21.029506],[105.8273507,21.0295689]]}},{"type":"Feature","properties":{"osm_id":711776732,"name":"Phố Nguyễn Thái Học","highway":"primary","width":0},"geometry":{"type":"LineString","coordinates":[[105.8327536,21.0313977],[105.8329017,21.0313551],[105.8338248,21.0310895],[105.8340213,21.0310333],[105.8342397,21.0309703],[105.8353531,21.0306526],[105.8355329,21.0305984]]}},{"type":"Feature","properties":{"osm_id":882269315,"name":"Phố Nguyễn Lương Bằng","highway":"primary","width":0},"geometry":{"type":"LineString","coordinates":[[105.8295901,21.0181958],[105.829542,21.0180784],[105.8294371,21.0178042],[105.8292934,21.0175367]]}},{"type":"Feature","properties":{"osm_id":885163364,"name":"Đường La Thành","highway":"tertiary","width":0},"geometry":{"type":"LineString","coordinates":[[105.8262805,21.0209797],[105.826253,21.0210107],[105.8261838,21.0210523]]}},{"type":"Feature","properties":{"osm_id":885163365,"name":"Đường La Thành","highway":"secondary","width":0},"geometry":{"type":"LineString","coordinates":[[105.8257757,21.0211704],[105.8259408,21.0210924]]}},{"type":"Feature","properties":{"osm_id":885892451,"name":"","highway":"secondary","width":0},"geometry":{"type":"LineString","coordinates":[[105.827209,21.0294135],[105.8272809,21.0294248],[105.8273225,21.02943],[105.8273932,21.0294365]]}},{"type":"Feature","properties":{"osm_id":945322254,"name":"Phố Hào Nam","highway":"secondary","width":0},"geometry":{"type":"LineString","coordinates":[[105.8273932,21.0294365],[105.8274018,21.0293992]]}},{"type":"Feature","properties":{"osm_id":945322255,"name":"Phố Hào Nam","highway":"secondary","width":0},"geometry":{"type":"LineString","coordinates":[[105.8276362,21.0266314],[105.827651,21.0266096],[105.8276694,21.0265921],[105.8276974,21.0265802],[105.8277353,21.0265765],[105.8277747,21.0265816],[105.8278032,21.0265949]]}},{"type":"Feature","properties":{"osm_id":945322276,"name":"Phố Hào Nam","highway":"secondary","width":0},"geometry":{"type":"LineString","coordinates":[[105.8278032,21.0265949],[105.8278214,21.0266113],[105.8278431,21.0266351],[105.8278561,21.0266653],[105.8278607,21.0267023],[105.8278517,21.0267445],[105.8278356,21.0267721]]}},{"type":"Feature","properties":{"osm_id":946867355,"name":"Phố Hoàng Cầu","highway":"secondary","width":0},"geometry":{"type":"LineString","coordinates":[[105.8206455,21.0156423],[105.8208212,21.0158353],[105.820951,21.0159706],[105.8210564,21.016068],[105.8211518,21.0161416],[105.8212396,21.0161966],[105.821313,21.0162338],[105.8213793,21.0162608],[105.821463,21.0162902],[105.821546,21.0163076],[105.8216139,21.0163209],[105.8216918,21.016325],[105.8219248,21.0163274],[105.822287,21.0163195],[105.8230077,21.0163297],[105.8230933,21.0163416],[105.8231929,21.0163678],[105.8232829,21.0164074]]}},{"type":"Feature","properties":{"osm_id":954341842,"name":"Phố Tôn Đức Thắng","highway":"secondary","width":0},"geometry":{"type":"LineString","coordinates":[[105.8299424,21.0188712],[105.8297546,21.0185574],[105.8296963,21.018444]]}},{"type":"Feature","properties":{"osm_id":964674137,"name":"Phố Ô Chợ Dừa","highway":"primary","width":0},"geometry":{"type":"LineString","coordinates":[[105.8296963,21.018444],[105.8295418,21.0185968],[105.8293738,21.0187439],[105.8291813,21.0189074]]}},{"type":"Feature","properties":{"osm_id":965992922,"name":"Phố Hào Nam","highway":"secondary","width":0},"geometry":{"type":"LineString","coordinates":[[105.8275298,21.0284861],[105.8275091,21.0287132],[105.8275002,21.0288101]]}},{"type":"Feature","properties":{"osm_id":967878665,"name":"Phố Giảng Võ","highway":"primary","width":0},"geometry":{"type":"LineString","coordinates":[[105.8218932,21.0251753],[105.8223409,21.0255517],[105.8229496,21.0260644],[105.8231186,21.026212],[105.8231844,21.0262688]]}},{"type":"Feature","properties":{"osm_id":1040753543,"name":"Phố Hào Nam","highway":"secondary","width":0},"geometry":{"type":"LineString","coordinates":[[105.8276909,21.0268084],[105.8276729,21.0270249],[105.8276481,21.0271979],[105.8276136,21.0275582]]}},{"type":"Feature","properties":{"osm_id":1160702715,"name":"Đường Hùng Vương","highway":"tertiary","width":0},"geometry":{"type":"LineString","coordinates":[[105.8340213,21.0310333],[105.8340097,21.0310626],[105.8340028,21.031092],[105.8340009,21.0311297],[105.8341534,21.0318742],[105.8341838,21.0320229]]}},{"type":"Feature","properties":{"osm_id":1191703477,"name":"Đường La Thành","highway":"tertiary","width":0},"geometry":{"type":"LineString","coordinates":[[105.8261838,21.0210523],[105.8261156,21.0210846],[105.8259741,21.0211528]]}},{"type":"Feature","properties":{"osm_id":1203847241,"name":"Phố An Trạch","highway":"tertiary","width":0},"geometry":{"type":"LineString","coordinates":[[105.8278356,21.0267721],[105.827921,21.026938],[105.8279617,21.0270171]]}},{"type":"Feature","properties":{"osm_id":1203847242,"name":"Phố An Trạch","highway":"tertiary","width":0},"geometry":{"type":"LineString","coordinates":[[105.8279617,21.0270171],[105.8288438,21.0274416],[105.8289775,21.0275059]]}},{"type":"Feature","properties":{"osm_id":1203847535,"name":"Phố An Trạch","highway":"tertiary","width":0},"geometry":{"type":"LineString","coordinates":[[105.8315984,21.0282054],[105.8317661,21.0285828],[105.8318088,21.0286941]]}},{"type":"Feature","properties":{"osm_id":1203979590,"name":"Phố Hoàng Cầu","highway":"secondary","width":0},"geometry":{"type":"LineString","coordinates":[[105.8255429,21.0203672],[105.8255809,21.0204454],[105.8256907,21.0206311]]}},{"type":"Feature","properties":{"osm_id":1204882028,"name":"Phố Tôn Đức Thắng","highway":"secondary","width":0},"geometry":{"type":"LineString","coordinates":[[105.8316385,21.0221143],[105.8318558,21.0226103],[105.8320407,21.0230111]]}},{"type":"Feature","properties":{"osm_id":1204882029,"name":"Phố Tôn Đức Thắng","highway":"secondary","width":0},"geometry":{"type":"LineString","coordinates":[[105.8320407,21.0230111],[105.8321917,21.0233441],[105.8322243,21.0234152]]}},{"type":"Feature","properties":{"osm_id":1204906467,"name":"Phố Hào Nam","highway":"secondary","width":0},"geometry":{"type":"LineString","coordinates":[[105.827496,21.0262322],[105.8274264,21.0260625],[105.8273983,21.0259516]]}},{"type":"Feature","properties":{"osm_id":1216203224,"name":"Phố Hoàng Cầu","highway":"secondary","width":0},"geometry":{"type":"LineString","coordinates":[[105.8253623,21.0200118],[105.8255429,21.0203672]]}},{"type":"Feature","properties":{"osm_id":1217779456,"name":"Phố Cát Linh","highway":"tertiary","width":0},"geometry":{"type":"LineString","coordinates":[[105.8296151,21.0291865],[105.8299576,21.0291222]]}},{"type":"Feature","properties":{"osm_id":1217779457,"name":"Phố Cát Linh","highway":"tertiary","width":0},"geometry":{"type":"LineString","coordinates":[[105.8294382,21.0292191],[105.8296151,21.0291865]]}},{"type":"Feature","properties":{"osm_id":1227519092,"name":"Phố Cát Linh","highway":"tertiary","width":0},"geometry":{"type":"LineString","coordinates":[[105.8273507,21.0295689],[105.8274273,21.0295689],[105.827521,21.0295587],[105.8276155,21.0295417],[105.8283922,21.0294071]]}},{"type":"Feature","properties":{"osm_id":1240127119,"name":"Phố Giảng Võ","highway":"primary","width":0},"geometry":{"type":"LineString","coordinates":[[105.8198877,21.0233956],[105.8199568,21.0234922],[105.8202374,21.023779]]}},{"type":"Feature","properties":{"osm_id":1240127122,"name":"Phố Hoàng Cầu","highway":"secondary","width":0},"geometry":{"type":"LineString","coordinates":[[105.8251233,21.0198656],[105.8250989,21.0198167],[105.8249912,21.0196118],[105.8249301,21.0194954],[105.8248019,21.0192521],[105.8247558,21.0191646],[105.8246798,21.0190236],[105.8245384,21.0187625],[105.8243228,21.0183481],[105.8242123,21.0181278],[105.8241771,21.0180648],[105.8241401,21.0179988],[105.8240753,21.0178756],[105.8239134,21.0175679],[105.8237598,21.0172726],[105.8235086,21.0168221],[105.8234483,21.0167325],[105.8233877,21.0166644],[105.823334,21.0166106],[105.8232619,21.0165588],[105.8232227,21.0165348]]}},{"type":"Feature","properties":{"osm_id":1240199914,"name":"Phố Ô Chợ Dừa","highway":"primary","width":0},"geometry":{"type":"LineString","coordinates":[[105.8255177,21.0206878],[105.8256907,21.0206311]]}},{"type":"Feature","properties":{"osm_id":1242183588,"name":"Phố Tôn Đức Thắng","highway":"secondary","width":0},"geometry":{"type":"LineString","coordinates":[[105.834098,21.0276774],[105.8337694,21.0269596],[105.8336728,21.0267523],[105.8336277,21.0266555],[105.8335689,21.0265292],[105.8333085,21.0259561],[105.8330075,21.0253066],[105.8327898,21.0248168],[105.8325803,21.0243628],[105.8325652,21.02433],[105.8322736,21.0236986]]}},{"type":"Feature","properties":{"osm_id":1242183589,"name":"Phố Tôn Đức Thắng","highway":"secondary","width":0},"geometry":{"type":"LineString","coordinates":[[105.8322243,21.0234152],[105.8322695,21.0235133]]}},{"type":"Feature","properties":{"osm_id":1242184418,"name":"Phố Tôn Đức Thắng","highway":"secondary","width":0},"geometry":{"type":"LineString","coordinates":[[105.830986,21.0208954],[105.8309503,21.0208182],[105.8307178,21.0203328],[105.8306589,21.0202038],[105.8306149,21.0201129],[105.8305315,21.0199308],[105.8302549,21.0193756],[105.8301169,21.0191314],[105.8300353,21.0190116]]}},{"type":"Feature","properties":{"osm_id":1242184419,"name":"Phố Tôn Đức Thắng","highway":"secondary","width":0},"geometry":{"type":"LineString","coordinates":[[105.8310544,21.0208665],[105.8313166,21.0214207],[105.8316385,21.0221143]]}},{"type":"Feature","properties":{"osm_id":1242184420,"name":"Phố Tôn Đức Thắng","highway":"secondary","width":0},"geometry":{"type":"LineString","coordinates":[[105.8309762,21.0206951],[105.8310205,21.0207896],[105.8310544,21.0208665]]}},{"type":"Feature","properties":{"osm_id":1246265594,"name":"Phố Mai Anh Tuấn","highway":"tertiary","width":0},"geometry":{"type":"LineString","coordinates":[[105.8241401,21.0179988],[105.8239122,21.0181018],[105.8236406,21.0182246],[105.8229511,21.0184931],[105.8225503,21.0186339],[105.8215575,21.0189588],[105.8212755,21.019037],[105.8210503,21.0190995]]}},{"type":"Feature","properties":{"osm_id":1266448183,"name":"Phố Nguyễn Lương Bằng","highway":"primary","width":0},"geometry":{"type":"LineString","coordinates":[[105.8292934,21.0175367],[105.8291112,21.0172215],[105.8289753,21.016992]]}},{"type":"Feature","properties":{"osm_id":1277725973,"name":"Phố Hào Nam","highway":"secondary","width":0},"geometry":{"type":"LineString","coordinates":[[105.8278356,21.0267721],[105.8278154,21.0267955],[105.8277995,21.0268073],[105.8277705,21.0268177],[105.8277415,21.0268201],[105.8277221,21.026819],[105.827706,21.0268145],[105.8276909,21.0268084]]}},{"type":"Feature","properties":{"osm_id":1298270939,"name":"Đường La Thành","highway":"tertiary","width":0},"geometry":{"type":"LineString","coordinates":[[105.8259408,21.0210924],[105.8260859,21.0210223],[105.826223,21.0209716],[105.8262805,21.0209797]]}},{"type":"Feature","properties":{"osm_id":1298270940,"name":"Đường La Thành","highway":"secondary","width":0},"geometry":{"type":"LineString","coordinates":[[105.8258047,21.0212306],[105.825738,21.0212606],[105.8256638,21.0212961],[105.8256158,21.0213155],[105.8255579,21.0213209]]}},{"type":"Feature","properties":{"osm_id":1298270941,"name":"Phố Hào Nam","highway":"secondary","width":0},"geometry":{"type":"LineString","coordinates":[[105.8258879,21.0213994],[105.8258244,21.0212695],[105.8258047,21.0212306]]}},{"type":"Feature","properties":{"osm_id":1317516877,"name":"Phố Tôn Đức Thắng","highway":"secondary","width":0},"geometry":{"type":"LineString","coordinates":[[105.8322185,21.0235792],[105.8321545,21.0234448]]}},{"type":"Feature","properties":{"osm_id":1317516878,"name":"Phố Tôn Đức Thắng","highway":"secondary","width":0},"geometry":{"type":"LineString","coordinates":[[105.8322736,21.0236986],[105.8322185,21.0235792]]}},{"type":"Feature","properties":{"osm_id":1317516879,"name":"Phố Tôn Đức Thắng","highway":"secondary","width":0},"geometry":{"type":"LineString","coordinates":[[105.8324017,21.023802],[105.8325138,21.0240435],[105.8326055,21.0242368],[105.8327438,21.0245437],[105.8327579,21.0245727],[105.8328783,21.0248318],[105.8329536,21.0249989],[105.8329831,21.0250631],[105.8330833,21.0252794],[105.8331229,21.0253659],[105.8333798,21.0259305],[105.8334511,21.0260869],[105.8335221,21.0262479],[105.8336391,21.0265029],[105.8336972,21.0266253],[105.8338027,21.0268477]]}},{"type":"Feature","properties":{"osm_id":1352026290,"name":"Phố Cát Linh","highway":"tertiary","width":0},"geometry":{"type":"LineString","coordinates":[[105.8334156,21.0280593],[105.8335304,21.0279909],[105.8338264,21.0278697],[105.8340436,21.0277793],[105.8341305,21.0277474]]}},{"type":"Feature","properties":{"osm_id":1368031455,"name":"Đường Vành đai 1","highway":"primary","width":0},"geometry":{"type":"LineString","coordinates":[[105.8208224,21.0226514],[105.8212329,21.022513],[105.8224366,21.0220893],[105.822719,21.021974],[105.8240462,21.0214322],[105.824292,21.0213184],[105.8246648,21.021128]]}},{"type":"Feature","properties":{"osm_id":1432500749,"name":"Phố Hoàng Cầu","highway":"secondary","width":0},"geometry":{"type":"LineString","coordinates":[[105.8232829,21.0164074],[105.8233386,21.0164392],[105.8234107,21.0164858],[105.8234818,21.016541],[105.8235513,21.0166104],[105.8236045,21.0166859],[105.823712,21.0168842],[105.8238769,21.0171907],[105.8240346,21.0174868],[105.8242141,21.0178097],[105.8242829,21.0179336]]}},{"type":"Feature","properties":{"osm_id":1484026046,"name":"Phố Tôn Đức Thắng","highway":"secondary","width":0},"geometry":{"type":"LineString","coordinates":[[105.8360064,21.0304587],[105.8359236,21.0303175],[105.8351408,21.0292001]]}},{"type":"Feature","properties":{"osm_id":1552255181,"name":"Đường Vành đai 1","highway":"primary","width":0},"geometry":{"type":"LineString","coordinates":[[105.8256318,21.0209028],[105.8255173,21.0209654],[105.8248003,21.021338],[105.8244131,21.021536],[105.8241441,21.0216736],[105.8237179,21.0218597],[105.823108,21.0221072],[105.8228313,21.0222185],[105.8225386,21.0223362],[105.8220122,21.0225246],[105.8213396,21.0227652],[105.8209543,21.022905]]}},{"type":"Feature","properties":{"osm_id":1552255192,"name":"","highway":"tertiary","width":0},"geometry":{"type":"LineString","coordinates":[[105.8199962,21.0229185],[105.8206076,21.0227058],[105.8208005,21.0226387],[105.8208224,21.0226514]]}},{"type":"Feature","properties":{"osm_id":1552255193,"name":"","highway":"tertiary","width":0},"geometry":{"type":"LineString","coordinates":[[105.8209543,21.022905],[105.8209418,21.0229366],[105.8205112,21.0230832]]}},{"type":"Feature","properties":{"osm_id":1553805980,"name":"Phố Mai Anh Tuấn","highway":"tertiary","width":0},"geometry":{"type":"LineString","coordinates":[[105.8241401,21.0179988],[105.8242829,21.0179336]]}},{"type":"Feature","properties":{"osm_id":1554551759,"name":"Đường Vành đai 1","highway":"primary","width":0},"geometry":{"type":"LineString","coordinates":[[105.8246648,21.021128],[105.8248755,21.0210168],[105.8253985,21.0207483],[105.8255177,21.0206878]]}}]}